KUIPER-00262            
1 67788U 26030AA  26070.69706823  .00028672  00000+0  79194-3 0  9990
2 67788  51.8814 209.2811 0000618  34.3300 325.7726 15.36829016  5408
KUIPER-00266            
1 67789U 26030AB  26070.78555111  .00023315  00000+0  77785-3 0  9996
2 67789  51.8812 209.8412 0023264  81.9114 278.4508 15.30706366  5401
KUIPER-00268            
1 67790U 26030AC  26070.83867950  .00044492  00000+0  12466-2 0  9994
2 67790  51.8858 208.7369 0004862  24.2947 335.8268 15.36161267  5423
KUIPER-00270            
1 67791U 26030AD  26070.79820905  .00043010  00000+0  12593-2 0  9995
2 67791  51.8796 209.1964 0010354  60.3934 299.8082 15.34759996  5413
KUIPER-00274            
1 67792U 26030AE  26070.77721833  .00013238  00000+0  45973-3 0  9992
2 67792  51.8832 209.7955 0018029  77.5662 282.7338 15.29936645  5402
KUIPER-00275            
1 67793U 26030AF  26070.79525270  .00025111  00000+0  73958-3 0  9999
2 67793  51.8835 209.1868 0009375  59.9130 300.2785 15.34855682  5411
KUIPER-00276            
1 67794U 26030AG  26070.78029683  .00034766  00000+0  11764-2 0  9998
2 67794  51.8832 209.8160 0019224  65.4025 294.8959 15.30115182  5400
KUIPER-00279            
1 67795U 26030AH  26070.78567469  .00040304  00000+0  11531-2 0  9995
2 67795  51.8810 209.1164 0006079  47.4868 312.6631 15.35547033  5419
CREW DRAGON 12          
1 67796U 26031A   26070.83651153  .00008338  00000+0  16153-3 0  9994
2 67796  51.6324  61.7417 0007973 182.2925 177.8028 15.48586968556569
STARLINK-36800          
1 67797U 26032A   26070.78994066  .00153683  00000+0  10113-2 0  9996
2 67797  97.2841 257.3751 0001417  92.7913 267.3514 15.75224696  5115
STARLINK-36798          
1 67798U 26032B   26070.77370500  .00243408  00000+0  15817-2 0  9998
2 67798  97.2848 257.3979 0001491  96.4949 263.6486 15.75263718  5112
STARLINK-36804          
1 67799U 26032C   26070.78817558  .00224695  00000+0  14643-2 0  9992
2 67799  97.2839 257.3775 0001482  79.1765 280.9667 15.75248425  5112
STARLINK-36354          
1 67800U 26032D   26070.77723550  .00250102  00000+0  16240-2 0  9999
2 67800  97.2846 257.3944 0001509  75.2225 284.9207 15.75262042  5114
STARLINK-36773          
1 67801U 26032E   26070.78499741  .00256538  00000+0  16633-2 0  9998
2 67801  97.2841 257.3819 0001893  94.3029 265.8452 15.75278359  5119
STARLINK-36739          
1 67802U 26032F   26070.83017666  .00220726  00000+0  14395-2 0  9990
2 67802  97.2852 257.4737 0001493  65.7162 294.4259 15.75243475  5123
STARLINK-36768          
1 67803U 26032G   26070.77900091  .00222439  00000+0  14499-2 0  9995
2 67803  97.2842 257.3894 0001773  71.8307 288.3151 15.75249310  5112
STARLINK-36792          
1 67804U 26032H   26070.65441355  .00198666  00000+0  12987-2 0  9990
2 67804  97.2843 257.2525 0001141 105.9342 254.2049 15.75249563  5096
STARLINK-36782          
1 67805U 26032J   26070.82029788  .00211324  00000+0  13804-2 0  9998
2 67805  97.2850 257.4866 0001259  61.0658 299.0733 15.75232061  5123
STARLINK-36389          
1 67806U 26032K   26070.70664838  .00099718  00000+0  66082-3 0  9995
2 67806  97.2846 257.3337 0001753  83.0542 277.0923 15.75218107  5106
STARLINK-36382          
1 67807U 26032L   26070.83159994  .00221736  00000+0  14429-2 0  9996
2 67807  97.2845 257.4694 0001421 120.4670 239.6735 15.75291156  5125
STARLINK-36811          
1 67808U 26032M   26070.82170791  .00172427  00000+0  11320-2 0  9993
2 67808  97.2853 257.4841 0001177  64.5291 295.6095 15.75224779  5122
STARLINK-36795          
1 67809U 26032N   26070.64806212  .00190381  00000+0  12457-2 0  9999
2 67809  97.2843 257.2599 0001640  94.9483 265.1969 15.75252062  5099
STARLINK-36807          
1 67810U 26032P   26070.82277112  .00177363  00000+0  11649-2 0  9999
2 67810  97.2854 257.4812 0000740  84.8925 275.2425 15.75201707  5125
STARLINK-36733          
1 67811U 26032Q   26070.83335647 -.00044921  00000+0 -30204-3 0  9993
2 67811  97.2849 257.5140 0001335  76.4896  37.6668 15.75178141  5124
STARLINK-36377          
1 67812U 26032R   26070.81076549  .00243214  00000+0  15805-2 0  9998
2 67812  97.2847 257.4977 0001230  71.0752 289.0646 15.75262130  5127
STARLINK-36732          
1 67813U 26032S   26070.81570897  .00160944  00000+0  10581-2 0  9998
2 67813  97.2852 257.4898 0001619  71.9768 288.1674 15.75223757  5126
STARLINK-36767          
1 67814U 26032T   26070.77194237  .00324727  00000+0  20874-2 0  9991
2 67814  97.2838 257.3961 0001267  84.6394 275.5016 15.75287323  5114
STARLINK-36797          
1 67815U 26032U   26070.82664718  .00272393  00000+0  17639-2 0  9990
2 67815  97.2848 257.4761 0001375  53.4748 306.6644 15.75263368  5129
STARLINK-36343          
1 67816U 26032V   26070.80688590  .00183968  00000+0  12054-2 0  9998
2 67816  97.2845 257.5014 0001433  59.6162 300.5244 15.75237169  5121
STARLINK-36756          
1 67817U 26032W   26070.81782320  .00224095  00000+0  14602-2 0  9994
2 67817  97.2849 257.4867 0000974  89.2978 270.8398 15.75254194  5119
STARLINK-36346          
1 67818U 26032X   26070.80265030  .00159429  00000+0  10480-2 0  9996
2 67818  97.2847 257.5081 0001548  87.6622 272.4820 15.75231392  5127
STARLINK-36788          
1 67819U 26032Y   26070.82876424  .00194013  00000+0  12697-2 0  9994
2 67819  97.2848 257.4721 0001034  69.6561 290.4816 15.75237949  5120
STARLINK-36353          
1 67820U 26032Z   26070.82488585  .00294865  00000+0  19048-2 0  9996
2 67820  97.2845 257.4771 0001523  50.8788 309.2613 15.75256519  5128
STARLINK-36644          
1 67821U 26033A   26070.84100060 -.00377814  00000+0 -19534-2 0  9997
2 67821  42.9977 258.3441 0003205 278.8619  81.1889 15.81082676  4960
STARLINK-36643          
1 67822U 26033B   26070.83335647 -.01906373  00000+0 -13692-1 0  9995
2 67822  42.9992 258.4194 0001750 271.5414  34.4148 15.75976554  5005
STARLINK-36646          
1 67823U 26033C   26070.83335647 -.01912536  00000+0 -11970-1 0  9991
2 67823  42.9991 258.3792 0001832 272.5888  49.4813 15.79025103  5009
STARLINK-36647          
1 67824U 26033D   26069.89167211  .00433021  00000+0  19822-2 0  9995
2 67824  42.9982 264.1283 0004431 328.7933  31.2675 15.81746485  4812
STARLINK-36648          
1 67825U 26033E   26070.83784502  .00339276  00000+0  15423-2 0  9990
2 67825  42.9986 258.3200 0003069 308.2894  51.7702 15.82140964  4961
STARLINK-35865          
1 67826U 26033F   26070.58456529  .00499249  00000+0  22353-2 0  9995
2 67826  42.9984 259.8588 0004469 297.1645  62.8771 15.82053400  4923
STARLINK-36289          
1 67827U 26033G   26070.83335647 -.01912670  00000+0 -13293-1 0  9994
2 67827  42.9992 258.3568 0001652 271.6790  59.2434 15.76722654  5007
STARLINK-36670          
1 67828U 26033H   26069.88860328  .00529095  00000+0  23515-2 0  9998
2 67828  42.9984 264.1031 0002069 319.1211  40.9505 15.82137911  4815
STARLINK-36144          
1 67829U 26033J   26070.01418969 -.00462674  00000+0 -23805-2 0  9999
2 67829  42.9976 263.3234 0003478 278.2148  81.8329 15.81396851  4831
STARLINK-36611          
1 67830U 26033K   26070.83335647 -.01922362  00000+0 -11702-1 0  9990
2 67830  42.9991 258.3002 0001534 277.8237  75.5747 15.79646665  5004
STARLINK-36661          
1 67831U 26033L   26070.70633738  .00414164  00000+0  18783-2 0  9999
2 67831  42.9979 259.0496 0001693 272.6355  87.4323 15.81999167  4941
STARLINK-36662          
1 67832U 26033M   26070.83100186  .01828840  00000+0  64925-2 0  9990
2 67832  42.9962 257.3520 0008461 300.5381  59.4656 15.85414116  4974
STARLINK-36659          
1 67833U 26033N   26069.88560167  .00548655  00000+0  24307-2 0  9995
2 67833  42.9978 264.0779 0001992 269.6927  90.3717 15.82155791  4819
STARLINK-36655          
1 67834U 26033P   26070.83335647 -.01916459  00000+0 -11657-1 0  9993
2 67834  42.9991 258.2680 0001554 280.6135  85.6386 15.79654059  5007
STARLINK-36657          
1 67835U 26033Q   26069.88396311  .00995188  00000+0  40248-2 0  9994
2 67835  42.9975 264.0647 0003179 271.1022  88.9486 15.82980376  4816
STARLINK-36650          
1 67836U 26033R   26070.83335647 -.01910987  00000+0 -14140-1 0  9995
2 67836  42.9993 258.2890 0001541 273.8395  84.0142 15.75318768  5005
STARLINK-36649          
1 67837U 26033S   26070.51409359  .00506791  00000+0  23055-2 0  9990
2 67837  42.9976 260.1863 0005269 217.1303 142.9205 15.81687853  4914
STARLINK-36654          
1 67838U 26033T   26070.83335647 -.01910995  00000+0 -12987-1 0  9993
2 67838  42.9991 258.2432 0001769 276.1047  99.7161 15.77216125  5009
STARLINK-36652          
1 67839U 26033U   26070.83335647 -.01905919  00000+0 -13975-1 0  9992
2 67839  42.9991 258.2536 0001843 276.8083  94.9746 15.75510640  5008
STARLINK-36651          
1 67840U 26033V   26070.83335647 -.01908594  00000+0 -13073-1 0  9995
2 67840  42.9991 258.2235 0001799 277.4042 106.2084 15.77037579  5007
STARLINK-36656          
1 67841U 26033W   26070.00587953  .00167638  00000+0  78297-3 0  9998
2 67841  42.9980 263.2558 0002262 260.6473  99.4143 15.82024668  4838
STARLINK-36653          
1 67842U 26033X   26070.83335647 -.01908621  00000+0 -13019-1 0  9998
2 67842  42.9991 258.2012 0001777 277.7184 114.8352 15.77130460  5004
STARLINK-36589          
1 67843U 26033Y   26070.83335647 -.01912742  00000+0 -12445-1 0  9990
2 67843  42.9989 258.1810 0001576 272.4902 128.2666 15.78181267  5003
STARLINK-36598          
1 67844U 26033Z   26070.83335647 -.01905112  00000+0 -14315-1 0  9992
2 67844  42.9990 258.2078 0001816 277.4692 112.4549 15.74957274  5001
STARLINK-36606          
1 67845U 26033AA  26069.93974076  .00194310  00000+0  90238-3 0  9994
2 67845  42.9975 263.6169 0001667 246.0158 114.0539 15.82072065  4820
STARLINK-36658          
1 67846U 26033AB  26070.83335647 -.01911269  00000+0 -14076-1 0  9998
2 67846  42.9990 258.1794 0001652 279.9216 121.2554 15.75423167  5008
